IRIDIUM 63              
1 25286U 98021B   25351.57201315  .00000361  00000+0  11573-3 0  9992
2 25286  86.3981   5.1864 0002375  87.3562 272.7907 14.36739589450178
IRIDIUM 69              
1 25319U 98026A   25351.57501826  .00000387  00000+0  11373-3 0  9990
2 25319  86.3975  17.8943 0004264 116.5108 243.6529 14.41221526449477
IRIDIUM 71              
1 25320U 98026B   25351.56145595  .00000281  00000+0  80594-4 0  9993
2 25320  86.3974  12.5722 0002455 145.3253 214.8107 14.41320861450001
IRIDIUM 73              
1 25344U 98032C   25351.94748840  .00000554  00000+0  13216-3 0  9999
2 25344  86.4408 328.7753 0003012  89.5229 270.6322 14.51996911457224
IRIDIUM 82              
1 25467U 98051A   25351.56453038  .00036073  00000+0  66442-3 0  9990
2 25467  86.3604  18.6795 0059078 316.0755  43.5813 15.47026791452147
